FREGAT R/B              
1 45609U 20031B   26068.24182077  .00001117  00000+0  00000+0 0  9991
2 45609  63.5231  76.4858 7134506 258.2266  20.6612  2.01391074 42641
BEIDOU-3 G3             
1 45807U 20040A   26073.94689001 -.00000353  00000+0  00000+0 0  9995
2 45807   2.2142  67.1491 0004839 325.3883 231.4219  1.00270508 21122
APSTAR-6D               
1 45863U 20045A   26072.02615433 -.00000317  00000+0  00000+0 0  9998
2 45863   0.0395 107.0519 0002994 327.1340 239.9300  1.00276516 20895
KOREASAT 116            
1 45920U 20048A   26073.87677638 -.00000363  00000+0  00000+0 0  9995
2 45920   0.0202 251.5904 0000903 102.7181 249.9976  1.00275107 20690
EXPRESS 103             
1 45985U 20053A   26073.58761553 -.00000281  00000+0  00000+0 0  9999
2 45985   0.0184 259.3554 0000228 167.4219  53.4654  1.00271619 20704
EXPRESS 80              
1 45986U 20053B   26073.30025155  .00000000  00000+0  00000+0 0  9999
2 45986   0.0196 186.1346 0001275  85.0672  88.7836  1.00269879 20680
BREEZE-M R/B            
1 45987U 20053C   26073.63370831 -.00000284  00000+0  00000+0 0  9995
2 45987   7.2754  79.8801 4349062  74.6518 328.6503  1.03581671 21262
BSAT-4B                 
1 46112U 20056A   26073.92294141 -.00000351  00000+0  00000+0 0  9995
2 46112   0.0304 159.6029 0002145 284.3516 170.6646  1.00270726 20441
MEV-2                   
1 46113U 20056B   26073.92487659 -.00000012  00000+0  00000+0 0  9998
2 46113   0.0224 119.2014 0001309 292.1451  93.1527  1.00270789 79568
GALAXY 30 (G-30)        
1 46114U 20056C   26073.68632299  .00000000  00000+0  00000+0 0  9990
2 46114   0.0264 153.2110 0002013 213.9429 287.2274  1.00270004 20344
ATLAS 5 CENTAUR DEB     
1 46602U 18079CA  26071.12497971 -.00000149  00000+0  00000+0 0  9992
2 46602  13.4017  47.1673 4681694 286.5326  28.3367  1.79057824 38243
GAOFEN-13 01            
1 46610U 20071A   26073.94853669 -.00000363  00000+0  00000+0 0  9996
2 46610   0.2759  85.5387 0042856 119.7937  66.9362  1.00269240 19972
ATLAS 5 CENTAUR DEB     
1 46657U 18079CK  26070.31419564 -.00000211  00000+0  00000+0 0  9994
2 46657  11.9824  31.0302 5857310 322.5632   8.3084  1.70522837 33662
ATLAS 5 CENTAUR DEB     
1 46846U 18079DB  26073.64483802 -.00000121  00000+0  00000+0 0  9999
2 46846  12.3110  70.9104 4794087 251.4579  52.1288  1.71829146 33675
ATLAS 5 CENTAUR DEB     
1 46847U 18079DC  26068.71093466 -.00000154  00000+0  00000+0 0  9991
2 46847  13.4650  49.8704 4709791 279.6402  31.9948  1.77285910 34673
ATLAS 5 CENTAUR DEB     
1 46857U 18079DN  26072.92693012 -.00000086  00000+0  00000+0 0  9997
2 46857  12.4493  81.1152 4643741 222.7487  90.0194  1.69096017 33114
TIANTONG-1 2            
1 46916U 20082A   26071.81044564 -.00000356  00000+0  00000+0 0  9999
2 46916   0.9369 315.6260 0003405  40.2922 231.1810  1.00267197 19682
ATLAS 5 CENTAUR DEB     
1 47096U 14055DE  26067.85579234 -.00000022  00000+0  00000+0 0  9998
2 47096  19.2731 176.0183 4883544 108.0242 309.4442  1.79155208 35327
LUCAS (JDRS-1)          
1 47202U 20089A   26073.73100303 -.00000236  00000+0  00000+0 0  9999
2 47202   0.0698 272.6224 0003037  83.2338 170.3968  1.00269765 19476
SXM-7                   
1 47240U 20096A   26072.19669029 -.00000205  00000+0  00000+0 0  9999
2 47240   0.0201 121.6444 0004635   5.6913  29.1302  1.00271702  6481
BREEZE-M DEB [TANK]     
1 47243U 20097B   26073.33375777  .00001314  00000+0  16044-2 0  9993
2 47243  58.2765 127.8591 7303766 104.2386 340.0252  2.20449638 42116
CMS-01                  
1 47256U 20099A   26073.94151665 -.00000165  00000+0  00000+0 0  9990
2 47256   0.0434 107.0082 0005768 184.7872 302.6771  1.00270843 19256
TURKSAT 5A              
1 47306U 21001A   26071.29265191  .00000155  00000+0  00000+0 0  9994
2 47306   0.0184 105.0454 0000321 350.9311 210.2194  1.00273019 18991
FALCON 9 R/B            
1 47307U 21001B   26073.49277034  .00000349  00000+0  13256-2 0  9993
2 47307  15.9260 214.1262 7776543 344.1938   0.9873  1.65138055 28590
TIANTONG-1 3            
1 47321U 21003A   26073.80657179 -.00000155  00000+0  00000+0 0  9994
2 47321   1.8424 333.6665 0003274  23.6227 187.0252  1.00273580 19010
TJS-6                   
1 47613U 21010A   26073.88908310  .00000043  00000+0  00000+0 0  9995
2 47613   0.3550  90.2566 0003612 296.0901 284.7276  1.00274243 18865
ARKTIKA-M 1             
1 47719U 21016A   26072.78872222 -.00000108  00000+0  00000+0 0  9991
2 47719  63.2042  71.2738 7248342 269.5023  15.1596  2.00619294 36876
FREGAT R/B              
1 47720U 21016B   26072.97347889 -.00000130  00000+0  00000+0 0  9995
2 47720  63.2254  64.0185 7370153 267.2141  14.9582  1.98923262 36546
SHIYAN-9 (SY-9)         
1 47851U 21019A   26069.62463088 -.00000222  00000+0  00000+0 0  9993
2 47851  16.7428 303.7120 0015277  26.8901 209.4182  1.00277331 23149
SL-6 DEB                
1 48261U 80063E   26068.13473897  .00000203  00000+0 -35185-2 0  9991
2 48261  63.9141 358.8451 7121868 284.4551  11.8230  2.11465598 94899
SL-6 DEB                
1 48262U 80063F   26067.27287458 -.00001216  00000+0  10176-2 0  9990
2 48262  63.5987  17.3660 7221452 280.8706 335.6868  2.05116896 92096
COSMOS 1367 DEB         
1 48266U 82045E   26072.13681499  .00000676  00000+0  19062-1 0  9990
2 48266  64.1527  64.1804 7205141  13.3916 358.4202  2.06312248 45640
ARIANE 3 DEB            
1 48347U 84081G   26073.90778820 -.00000331  00000+0  00000+0 0  9992
2 48347   6.1195  26.8555 7095211 311.2080   6.5512  2.08089048 93685
SBIRS GEO-5 (USA 315)   
1 48618U 21042A   26073.08794280 -.00000266  00000+0  00000+0 0  9995
2 48618   5.2254 328.3936 0001214  27.8061 300.9489  1.00272085 17818
FENGYUN 4B              
1 48808U 21047A   26073.94576334 -.00000331  00000+0  00000+0 0  9997
2 48808   0.2173  77.6078 0008015 296.5273 243.5569  1.00273405 17628
SXM-8                   
1 48838U 21049A   26072.39973768 -.00000205  00000+0  00000+0 0  9992
2 48838   0.0324  51.3663 0004610 356.5126 181.8973  1.00270921 17631
TIANLIAN 1-05           
1 49011U 21063A   26073.85701628  .00000108  00000+0  00000+0 0  9999
2 49011   1.3487  81.4721 0004050 236.2960 179.9661  1.00273003 17137
STAR ONE D2             
1 49055U 21069A   26073.76839669  .00000000  00000+0  00000+0 0  9991
2 49055   0.0270 155.5679 0000776 189.7833  33.5729  1.00268551 16982
EUTELSAT QUANTUM        
1 49056U 21069B   26073.90183736  .00000125  00000+0  00000+0 0  9993
2 49056   0.0242 275.6234 0002582  78.8388 190.4032  1.00272386 16984
ZHONGXING-2E            
1 49062U 21071A   26073.94446333 -.00000292  00000+0  00000+0 0  9998
2 49062   0.0455 305.8937 0001218 176.0008 128.7123  1.00271027 17097
TJS-7                   
1 49115U 21077A   26073.90537650 -.00000125  00000+0  00000+0 0  9997
2 49115   0.2634  87.8933 0002099 284.2617  26.7921  1.00273795  8600
CHINASAT 9B             
1 49125U 21080A   26072.80405831 -.00000312  00000+0  00000+0 0  9993
2 49125   0.0190 151.3902 0001801 186.9386 223.9023  1.00267747 16692
SHIYAN-10 01 (SY-10 01) 
1 49258U 21087A   26072.19585569  .00000689  00000+0  00000+0 0  9992
2 49258  63.1020 231.1701 6971035 269.9213  17.1628  2.00639793 32605
SHIJIAN-21 (SJ-21)      
1 49330U 21094A   26073.97349591 -.00000347  00000+0  00000+0 0  9993
2 49330   4.8887  61.7022 0048043 171.4369  57.5984  1.00262895  4414
SES-17                  
1 49332U 21095A   26073.91178986 -.00000273  00000+0  00000+0 0  9996
2 49332   0.0287  54.5949 0000945 310.0580  68.9977  1.00269525 16903
SYRACUSE 4A             
1 49333U 21095B   26073.85391839  .00000000  00000+0  00000+0 0  9991
2 49333   0.0244 168.4054 0001474 179.3922 177.5827  1.00269633 17006
QZS-1R (MICHIBIKI-1R)   
1 49336U 21096A   26073.48417348 -.00000213  00000+0  00000+0 0  9995
2 49336  37.2643  80.9807 0748407 269.9092 130.1920  1.00287959 16061
ATLAS 5 CENTAUR DEB     
1 49340U 18079ER  26073.34304102 -.00000140  00000+0  00000+0 0  9994
2 49340  13.6459  45.8198 4774431 285.3364  28.2427  1.76318397 29232
ATLAS 5 CENTAUR DEB     
1 49341U 18079ES  26073.40105766 -.00000118  00000+0  00000+0 0  9992
2 49341  13.5921  54.7574 4652094 265.5601  41.9395  1.75092454 29044
ATLAS 5 CENTAUR DEB     
1 49343U 18079EU  26073.50141255 -.00000107  00000+0  00000+0 0  9996
2 49343  12.8360  67.8601 4585373 249.5935  56.5142  1.74625934 28975
ATLAS 5 CENTAUR DEB     
1 49351U 18079FC  26067.18867165 -.00000133  00000+0  00000+0 0  9996
2 49351  13.1652  66.6772 4674812 244.7261  60.4326  1.72154727 28461
ATLAS 5 CENTAUR DEB     
1 49352U 18079FD  26069.50490627 -.00000101  00000+0  00000+0 0  9995
2 49352  12.2827  86.1544 4607112 213.8179 105.8123  1.68334456 27859
ATLAS 5 CENTAUR DEB     
1 49356U 18079FH  26070.40092046 -.00000147  00000+0  00000+0 0  9993
2 49356  13.2094  52.6170 4649781 277.9357  33.5535  1.78469227 29548
ATLAS 5 CENTAUR DEB     
1 49362U 18079FP  26070.87977743 -.00000157  00000+0  00000+0 0  9998
2 49362  13.4461  47.7082 4853848 284.9188  27.8089  1.75762973 29094
ATLAS 5 CENTAUR DEB     
1 49366U 18079FT  26073.18265429 -.00000144  00000+0  00000+0 0  9996
2 49366  14.2293  48.3272 5207936 273.5400  31.0824  1.65078568 27801
FREGAT R/B              
1 49504U 21113B   26069.53120108  .00000922  00000+0  00000+0 0  9994
2 49504  63.3590 216.3889 6515089 266.8640  22.4304  2.01626397 31570
ZHONGXING-1D            
1 49505U 21114A   26072.59589900  .00000000  00000+0  00000+0 0  9992
2 49505   0.0155 141.4891 0002024  70.1904 304.2079  1.00267646 15860
STPSAT-6                
1 49817U 21118A   26073.90286316 -.00000045  00000+0  00000+0 0  9993
2 49817   0.0774  86.6741 0002320 242.4407  56.5531  1.00272195 15627
SATCOM 3 DEB            
1 49959U 79101AD  26073.72202980 -.00000145  00000+0  00000+0 0  9991
2 49959   7.1921 130.7908 4752335  22.3261 346.6359  1.80683091 81350
